[{"OBJECT_NAME":"IRIDIUM 122","OBJECT_ID":"2017-061C","EPOCH":"2026-03-09T22:07:58.507680","MEAN_MOTION":14.34217131,"ECCENTRICITY":0.00019893,"INCLINATION":86.3911,"RA_OF_ASC_NODE":66.6833,"ARG_OF_PERICENTER":88.1776,"MEAN_ANOMALY":271.9648,"EPHEMERIS_TYPE":0,"CLASSIFICATION_TYPE":"U","NORAD_CAT_ID":42957,"ELEMENT_SET_NO":999,"REV_AT_EPOCH":44055,"BSTAR":-1.2173426e-5,"MEAN_MOTION_DOT":-1.4e-7,"MEAN_MOTION_DDOT":0},{"OBJECT_NAME":"CZ-6A DEB","OBJECT_ID":"2024-140ZL","EPOCH":"2026-03-09T11:43:53.498496","MEAN_MOTION":14.30138597,"ECCENTRICITY":0.0028316,"INCLINATION":88.6024,"RA_OF_ASC_NODE":258.0998,"ARG_OF_PERICENTER":166.6414,"MEAN_ANOMALY":193.5538,"EPHEMERIS_TYPE":0,"CLASSIFICATION_TYPE":"U","NORAD_CAT_ID":61454,"ELEMENT_SET_NO":999,"REV_AT_EPOCH":7966,"BSTAR":0.0023220654,"MEAN_MOTION_DOT":6.047e-5,"MEAN_MOTION_DDOT":0}]
